{
  "type": "FeatureCollection",
  "generator": "overpass-turbo",
  "copyright": "The data included in this document is from www.openstreetmap.org. The data is made available under ODbL.",
  "timestamp": "2026-06-15T12:28:19Z",
  "features": [
    {
      "type": "Feature",
      "properties": {
        "@id": "relation/1846012",
        "addr:country": "RU",
        "addr:region": "Забайкальский край",
        "admin_level": "6",
        "boundary": "administrative",
        "name": "городской округ Чита",
        "name:ca": "Districte urbà de Txità",
        "name:en": "Chita",
        "name:ja": "チタ管区",
        "official_status": "ru:городской округ",
        "type": "boundary",
        "wikidata": "Q21349462",
        "wikipedia": "ru:Чита"
      },
      "geometry": {
        "type": "Polygon",
        "coordinates": [
          [
            [
              113.3018694,
              51.98839
            ],
            [
              113.3032255,
              51.9898664
            ],
            [
              113.305559,
              51.9909087
            ],
            [
              113.3081065,
              51.9913504
            ],
            [
              113.3094927,
              51.9933845
            ],
            [
              113.3111607,
              51.9943886
            ],
            [
              113.3137807,
              51.9949493
            ],
            [
              113.3223101,
              51.9984072
            ],
            [
              113.3266795,
              51.9977539
            ],
            [
              113.3314835,
              51.998468
            ],
            [
              113.33345,
              52.000728
            ],
            [
              113.3371023,
              52.0024261
            ],
            [
              113.3376908,
              52.0025756
            ],
            [
              113.3428544,
              52.0038874
            ],
            [
              113.3474216,
              52.0018204
            ],
            [
              113.3489248,
              52.0037941
            ],
            [
              113.3501576,
              52.0044395
            ],
            [
              113.3557267,
              52.0041368
            ],
            [
              113.3580474,
              52.0042399
            ],
            [
              113.3588823,
              52.004277
            ],
            [
              113.3613614,
              52.0028617
            ],
            [
              113.362216,
              52.0033221
            ],
            [
              113.3590552,
              52.0047996
            ],
            [
              113.358973,
              52.0059637
            ],
            [
              113.3566772,
              52.0067715
            ],
            [
              113.3549063,
              52.006128
            ],
            [
              113.3524436,
              52.00769
            ],
            [
              113.3496965,
              52.0087623
            ],
            [
              113.3545694,
              52.0117599
            ],
            [
              113.3594472,
              52.0147603
            ],
            [
              113.3645467,
              52.0173451
            ],
            [
              113.3808367,
              52.0209374
            ],
            [
              113.3839414,
              52.021519
            ],
            [
              113.4122114,
              52.0262877
            ],
            [
              113.4171905,
              52.0239963
            ],
            [
              113.4198961,
              52.0227792
            ],
            [
              113.4239342,
              52.0209354
            ],
            [
              113.441261,
              52.0135834
            ],
            [
              113.4409108,
              52.0131812
            ],
            [
              113.4499443,
              52.0090575
            ],
            [
              113.4434934,
              52.0041537
            ],
            [
              113.4414232,
              52.0025799
            ],
            [
              113.4325393,
              51.996142
            ],
            [
              113.4313825,
              51.9946771
            ],
            [
              113.4301407,
              51.9931044
            ],
            [
              113.4291591,
              51.9918612
            ],
            [
              113.4269079,
              51.9890101
            ],
            [
              113.4274135,
              51.9880626
            ],
            [
              113.4268678,
              51.9879318
            ],
            [
              113.4199985,
              51.986611
            ],
            [
              113.4201807,
              51.9862428
            ],
            [
              113.4297953,
              51.9857073
            ],
            [
              113.4306439,
              51.9853203
            ],
            [
              113.4318592,
              51.9854282
            ],
            [
              113.4338887,
              51.9840971
            ],
            [
              113.4389323,
              51.9807892
            ],
            [
              113.4450556,
              51.9767728
            ],
            [
              113.4488769,
              51.9748169
            ],
            [
              113.456696,
              51.9708146
            ],
            [
              113.4627593,
              51.9677107
            ],
            [
              113.4686493,
              51.9653543
            ],
            [
              113.4814863,
              51.9602183
            ],
            [
              113.4855573,
              51.9585893
            ],
            [
              113.4901764,
              51.9567411
            ],
            [
              113.4955834,
              51.9545774
            ],
            [
              113.5005995,
              51.95257
            ],
            [
              113.5083922,
              51.9494514
            ],
            [
              113.5118502,
              51.9480674
            ],
            [
              113.5152525,
              51.9467057
            ],
            [
              113.5158771,
              51.9454992
            ],
            [
              113.5156782,
              51.9441976
            ],
            [
              113.5160872,
              51.942971
            ],
            [
              113.5158993,
              51.9416967
            ],
            [
              113.5159714,
              51.9414388
            ],
            [
              113.5163935,
              51.9408654
            ],
            [
              113.5177536,
              51.9394992
            ],
            [
              113.5184767,
              51.9385282
            ],
            [
              113.5189613,
              51.9371571
            ],
            [
              113.5198641,
              51.9363523
            ],
            [
              113.5203292,
              51.9346896
            ],
            [
              113.5221779,
              51.9326991
            ],
            [
              113.5232527,
              51.9307639
            ],
            [
              113.5239132,
              51.9300506
            ],
            [
              113.524949,
              51.9293734
            ],
            [
              113.5266335,
              51.9286865
            ],
            [
              113.5279662,
              51.9273995
            ],
            [
              113.5274464,
              51.9263149
            ],
            [
              113.5274581,
              51.9258232
            ],
            [
              113.5283219,
              51.9247121
            ],
            [
              113.5286541,
              51.9227886
            ],
            [
              113.5077482,
              51.9210765
            ],
            [
              113.5144308,
              51.8849599
            ],
            [
              113.5591429,
              51.8879319
            ],
            [
              113.5580297,
              51.8937441
            ],
            [
              113.5548292,
              51.9104497
            ],
            [
              113.5520323,
              51.9250437
            ],
            [
              113.5514927,
              51.92499
            ],
            [
              113.530026,
              51.9228537
            ],
            [
              113.529045,
              51.9241119
            ],
            [
              113.5289629,
              51.9248447
            ],
            [
              113.5281226,
              51.9257702
            ],
            [
              113.5280405,
              51.9262016
            ],
            [
              113.5286463,
              51.9274091
            ],
            [
              113.5274738,
              51.9286552
            ],
            [
              113.5270282,
              51.9289974
            ],
            [
              113.5261332,
              51.9292312
            ],
            [
              113.5241985,
              51.9304169
            ],
            [
              113.523456,
              51.9314074
            ],
            [
              113.5230807,
              51.9323641
            ],
            [
              113.5227094,
              51.9328702
            ],
            [
              113.5208295,
              51.9349185
            ],
            [
              113.520423,
              51.9364704
            ],
            [
              113.5194381,
              51.9373089
            ],
            [
              113.519145,
              51.9384149
            ],
            [
              113.5182812,
              51.9396245
            ],
            [
              113.5168781,
              51.9410148
            ],
            [
              113.5165576,
              51.9415135
            ],
            [
              113.516456,
              51.9420388
            ],
            [
              113.5166145,
              51.9430549
            ],
            [
              113.516242,
              51.9443203
            ],
            [
              113.5165183,
              51.9453969
            ],
            [
              113.5159968,
              51.9468647
            ],
            [
              113.5208335,
              51.9498716
            ],
            [
              113.5232495,
              51.9475137
            ],
            [
              113.5408936,
              51.9490924
            ],
            [
              113.5481865,
              51.9516293
            ],
            [
              113.5553149,
              51.9541088
            ],
            [
              113.5695507,
              51.9590601
            ],
            [
              113.5711472,
              51.9596153
            ],
            [
              113.5738586,
              51.961342
            ],
            [
              113.5781959,
              51.9641041
            ],
            [
              113.5778372,
              51.9654619
            ],
            [
              113.5805566,
              51.9669278
            ],
            [
              113.5841928,
              51.9688878
            ],
            [
              113.5860671,
              51.96936
            ],
            [
              113.5888731,
              51.9686981
            ],
            [
              113.5922747,
              51.9677048
            ],
            [
              113.593795,
              51.9678045
            ],
            [
              113.5982802,
              51.9641719
            ],
            [
              113.6020402,
              51.9644098
            ],
            [
              113.6027065,
              51.9689196
            ],
            [
              113.607221,
              51.9726654
            ],
            [
              113.6061139,
              51.974478
            ],
            [
              113.6040614,
              51.9758393
            ],
            [
              113.6044355,
              51.9788817
            ],
            [
              113.6092438,
              51.9789132
            ],
            [
              113.6102931,
              51.9791866
            ],
            [
              113.6135583,
              51.9785462
            ],
            [
              113.6175253,
              51.9787467
            ],
            [
              113.6187803,
              51.9792388
            ],
            [
              113.620029,
              51.9806849
            ],
            [
              113.6202537,
              51.9819381
            ],
            [
              113.6195418,
              51.9823235
            ],
            [
              113.6161231,
              51.9874455
            ],
            [
              113.6165935,
              51.9892076
            ],
            [
              113.6209282,
              51.9924627
            ],
            [
              113.621231,
              51.9926901
            ],
            [
              113.6235184,
              51.9982584
            ],
            [
              113.6269772,
              52.0013213
            ],
            [
              113.6323293,
              52.0050256
            ],
            [
              113.6469315,
              52.0119396
            ],
            [
              113.6491811,
              52.0144034
            ],
            [
              113.6502547,
              52.0185162
            ],
            [
              113.6516273,
              52.0200167
            ],
            [
              113.6532184,
              52.0204671
            ],
            [
              113.6578967,
              52.0242107
            ],
            [
              113.6579033,
              52.0242208
            ],
            [
              113.6621271,
              52.0307047
            ],
            [
              113.656056,
              52.036735
            ],
            [
              113.6556798,
              52.0385918
            ],
            [
              113.6539051,
              52.0473497
            ],
            [
              113.6522016,
              52.0523027
            ],
            [
              113.6464228,
              52.0611342
            ],
            [
              113.6466145,
              52.0629254
            ],
            [
              113.647143,
              52.067863
            ],
            [
              113.645659,
              52.0705392
            ],
            [
              113.6455856,
              52.0705644
            ],
            [
              113.639415,
              52.0726847
            ],
            [
              113.6365667,
              52.0739939
            ],
            [
              113.635814,
              52.0743214
            ],
            [
              113.6262516,
              52.0784822
            ],
            [
              113.6180811,
              52.0820371
            ],
            [
              113.6147266,
              52.0850648
            ],
            [
              113.610008,
              52.0865372
            ],
            [
              113.5980284,
              52.0880039
            ],
            [
              113.5842506,
              52.0929978
            ],
            [
              113.5721133,
              52.0973966
            ],
            [
              113.5577202,
              52.1026125
            ],
            [
              113.5501879,
              52.1075033
            ],
            [
              113.543052,
              52.1121362
            ],
            [
              113.5374211,
              52.1157917
            ],
            [
              113.5272574,
              52.1205924
            ],
            [
              113.5236355,
              52.122303
            ],
            [
              113.5110323,
              52.128255
            ],
            [
              113.507582,
              52.1288648
            ],
            [
              113.5027866,
              52.1297123
            ],
            [
              113.4918932,
              52.1316373
            ],
            [
              113.4788164,
              52.1358545
            ],
            [
              113.4770649,
              52.1364134
            ],
            [
              113.4767321,
              52.1365179
            ],
            [
              113.4759774,
              52.1367529
            ],
            [
              113.4704561,
              52.1384873
            ],
            [
              113.4696444,
              52.1387498
            ],
            [
              113.4681219,
              52.139227
            ],
            [
              113.4666992,
              52.1396717
            ],
            [
              113.46266,
              52.1389767
            ],
            [
              113.4604532,
              52.1391185
            ],
            [
              113.4428854,
              52.1416047
            ],
            [
              113.4387975,
              52.1417017
            ],
            [
              113.4083769,
              52.1429394
            ],
            [
              113.4072481,
              52.1432701
            ],
            [
              113.3731435,
              52.1532601
            ],
            [
              113.3716523,
              52.15614
            ],
            [
              113.3665289,
              52.1637022
            ],
            [
              113.3735166,
              52.1718499
            ],
            [
              113.3713229,
              52.1727587
            ],
            [
              113.3681169,
              52.1712009
            ],
            [
              113.3648793,
              52.1701841
            ],
            [
              113.3637206,
              52.1694082
            ],
            [
              113.3607741,
              52.1700547
            ],
            [
              113.3586407,
              52.1698747
            ],
            [
              113.3558257,
              52.1679119
            ],
            [
              113.3545247,
              52.1677392
            ],
            [
              113.3514793,
              52.1699608
            ],
            [
              113.3500304,
              52.1692518
            ],
            [
              113.3504997,
              52.1686274
            ],
            [
              113.341652,
              52.1647446
            ],
            [
              113.3291304,
              52.157302
            ],
            [
              113.3153448,
              52.1491066
            ],
            [
              113.2976933,
              52.1386108
            ],
            [
              113.2935811,
              52.1369254
            ],
            [
              113.2683484,
              52.1265823
            ],
            [
              113.2622235,
              52.1240713
            ],
            [
              113.2598451,
              52.122788
            ],
            [
              113.2430844,
              52.1137439
            ],
            [
              113.2356897,
              52.1077778
            ],
            [
              113.2158256,
              52.0983373
            ],
            [
              113.2039986,
              52.088829
            ],
            [
              113.1650779,
              52.0575243
            ],
            [
              113.1701526,
              52.0468247
            ],
            [
              113.1650779,
              52.0451304
            ],
            [
              113.161743,
              52.0473598
            ],
            [
              113.1581182,
              52.0458438
            ],
            [
              113.1586982,
              52.0412065
            ],
            [
              113.1631929,
              52.0382633
            ],
            [
              113.1550733,
              52.0318411
            ],
            [
              113.1456487,
              52.0315735
            ],
            [
              113.1511585,
              52.0297002
            ],
            [
              113.1444888,
              52.0216707
            ],
            [
              113.1428396,
              52.0219804
            ],
            [
              113.1415889,
              52.0222061
            ],
            [
              113.1385441,
              52.0182801
            ],
            [
              113.140139,
              52.0112304
            ],
            [
              113.1492736,
              52.0091777
            ],
            [
              113.1437841,
              52.0061995
            ],
            [
              113.140719,
              52.0045365
            ],
            [
              113.1357367,
              52.0040395
            ],
            [
              113.1336143,
              51.99927
            ],
            [
              113.1439095,
              51.9893617
            ],
            [
              113.1734193,
              51.9753539
            ],
            [
              113.1851517,
              51.978821
            ],
            [
              113.2047793,
              51.9665543
            ],
            [
              113.2319606,
              51.964104
            ],
            [
              113.2452268,
              51.9790472
            ],
            [
              113.248425,
              51.9812801
            ],
            [
              113.2517647,
              51.9821681
            ],
            [
              113.2540784,
              51.9816638
            ],
            [
              113.2564131,
              51.9809994
            ],
            [
              113.2529711,
              51.9769716
            ],
            [
              113.2546084,
              51.9755827
            ],
            [
              113.2532697,
              51.9731768
            ],
            [
              113.2544088,
              51.9722755
            ],
            [
              113.2584292,
              51.9737572
            ],
            [
              113.258552,
              51.9749655
            ],
            [
              113.2654002,
              51.9781132
            ],
            [
              113.2710815,
              51.9741967
            ],
            [
              113.2725418,
              51.9747894
            ],
            [
              113.2736481,
              51.9737032
            ],
            [
              113.2753512,
              51.9722828
            ],
            [
              113.2772024,
              51.9742486
            ],
            [
              113.2835827,
              51.9743431
            ],
            [
              113.2861594,
              51.9736191
            ],
            [
              113.2893716,
              51.9745994
            ],
            [
              113.2825675,
              51.9789623
            ],
            [
              113.282714,
              51.9800102
            ],
            [
              113.281841,
              51.9804538
            ],
            [
              113.2815743,
              51.9806304
            ],
            [
              113.2859711,
              51.9835672
            ],
            [
              113.2873036,
              51.9853563
            ],
            [
              113.302971,
              51.9835236
            ],
            [
              113.3018694,
              51.98839
            ]
          ]
        ]
      },
      "id": "relation/1846012"
    },
    {
      "type": "Feature",
      "properties": {
        "@id": "node/251645471",
        "@relations": [
          {
            "role": "admin_centre",
            "rel": 1846012,
            "reltags": {
              "addr:country": "RU",
              "addr:region": "Забайкальский край",
              "admin_level": "6",
              "boundary": "administrative",
              "name": "городской округ Чита",
              "name:ca": "Districte urbà de Txità",
              "name:en": "Chita",
              "name:ja": "チタ管区",
              "official_status": "ru:городской округ",
              "type": "boundary",
              "wikidata": "Q21349462",
              "wikipedia": "ru:Чита"
            }
          }
        ]
      },
      "geometry": {
        "type": "Point",
        "coordinates": [
          113.500893,
          52.033409
        ]
      },
      "id": "node/251645471"
    }
  ]
}