{
  "type": "FeatureCollection",
  "generator": "overpass-turbo",
  "copyright": "The data included in this document is from www.openstreetmap.org. The data is made available under ODbL.",
  "timestamp": "2026-06-11T17:50:10Z",
  "features": [
    {
      "type": "Feature",
      "properties": {
        "@id": "relation/1586279",
        "admin_level": "9",
        "boundary": "administrative",
        "name": "Октябрьский район",
        "type": "boundary"
      },
      "geometry": {
        "type": "Polygon",
        "coordinates": [
          [
            [
              40.9912351,
              57.0046016
            ],
            [
              40.9912704,
              57.0048786
            ],
            [
              40.9912308,
              57.0057579
            ],
            [
              40.9911917,
              57.006065
            ],
            [
              40.9911172,
              57.0063251
            ],
            [
              40.9910097,
              57.0066742
            ],
            [
              40.9909376,
              57.0068388
            ],
            [
              40.9908655,
              57.0069834
            ],
            [
              40.9907524,
              57.0071813
            ],
            [
              40.9906026,
              57.0074091
            ],
            [
              40.9902543,
              57.0078681
            ],
            [
              40.98978,
              57.0084952
            ],
            [
              40.9891798,
              57.0092714
            ],
            [
              40.9886163,
              57.0100425
            ],
            [
              40.9883503,
              57.0104138
            ],
            [
              40.9878027,
              57.0111279
            ],
            [
              40.9872735,
              57.0117972
            ],
            [
              40.9866089,
              57.0126726
            ],
            [
              40.9861663,
              57.0132579
            ],
            [
              40.9857696,
              57.0137882
            ],
            [
              40.9849508,
              57.0148546
            ],
            [
              40.9842617,
              57.0157295
            ],
            [
              40.9840529,
              57.0159824
            ],
            [
              40.9839813,
              57.0161199
            ],
            [
              40.9836275,
              57.0164155
            ],
            [
              40.9832593,
              57.016583
            ],
            [
              40.9835247,
              57.0169021
            ],
            [
              40.9836356,
              57.0170875
            ],
            [
              40.9863306,
              57.0166061
            ],
            [
              40.9927478,
              57.0154382
            ],
            [
              40.9955955,
              57.0149611
            ],
            [
              40.9991898,
              57.0143264
            ],
            [
              41.002032,
              57.0138119
            ],
            [
              41.0036874,
              57.0135152
            ],
            [
              41.0041188,
              57.0143291
            ],
            [
              41.0042345,
              57.0151089
            ],
            [
              41.0040645,
              57.0155264
            ],
            [
              41.0037716,
              57.0161319
            ],
            [
              41.0036269,
              57.0163731
            ],
            [
              41.0035328,
              57.016632
            ],
            [
              41.0032552,
              57.0172542
            ],
            [
              41.0029904,
              57.0178268
            ],
            [
              41.002592,
              57.0186986
            ],
            [
              41.0024075,
              57.0194527
            ],
            [
              41.002545,
              57.020192
            ],
            [
              41.0033389,
              57.0210248
            ],
            [
              41.0040948,
              57.0217444
            ],
            [
              41.0046211,
              57.0222995
            ],
            [
              41.0049954,
              57.0225791
            ],
            [
              41.0055995,
              57.0228281
            ],
            [
              41.0070788,
              57.0232918
            ],
            [
              41.0077877,
              57.02359
            ],
            [
              41.0084369,
              57.0239601
            ],
            [
              41.0087353,
              57.02466
            ],
            [
              41.0086648,
              57.0247653
            ],
            [
              41.0086811,
              57.0252535
            ],
            [
              41.008786,
              57.0257811
            ],
            [
              41.008339,
              57.0276219
            ],
            [
              41.0093775,
              57.0288906
            ],
            [
              41.0109952,
              57.0300324
            ],
            [
              41.0128814,
              57.03108
            ],
            [
              41.0137573,
              57.0322833
            ],
            [
              41.0131392,
              57.0337747
            ],
            [
              41.0118959,
              57.0344225
            ],
            [
              41.0107621,
              57.0352623
            ],
            [
              41.0108575,
              57.0372303
            ],
            [
              41.0106702,
              57.0377108
            ],
            [
              41.0103841,
              57.0379241
            ],
            [
              41.0098755,
              57.038295
            ],
            [
              41.009381,
              57.0386659
            ],
            [
              41.0067955,
              57.0403397
            ],
            [
              41.0056829,
              57.0415791
            ],
            [
              41.0059248,
              57.041882
            ],
            [
              41.0052141,
              57.0421467
            ],
            [
              41.0025966,
              57.0430188
            ],
            [
              40.9978877,
              57.0460621
            ],
            [
              40.9994721,
              57.0461521
            ],
            [
              40.9994456,
              57.0465468
            ],
            [
              41.0003741,
              57.0466386
            ],
            [
              41.0005688,
              57.0466578
            ],
            [
              41.0007866,
              57.0476159
            ],
            [
              41.0009505,
              57.0483372
            ],
            [
              41.0009743,
              57.0484418
            ],
            [
              41.0014474,
              57.0492437
            ],
            [
              41.0019388,
              57.0500764
            ],
            [
              41.0021456,
              57.050427
            ],
            [
              41.0021466,
              57.0504475
            ],
            [
              41.0021931,
              57.0513532
            ],
            [
              41.0022137,
              57.0517555
            ],
            [
              41.0026279,
              57.0527578
            ],
            [
              41.0039716,
              57.0541424
            ],
            [
              41.0051505,
              57.0556283
            ],
            [
              41.0031757,
              57.0565855
            ],
            [
              41.002969,
              57.0557928
            ],
            [
              41.0029923,
              57.0547739
            ],
            [
              41.0002784,
              57.0566892
            ],
            [
              40.9964099,
              57.0576279
            ],
            [
              40.9954674,
              57.0580239
            ],
            [
              40.9915407,
              57.0614291
            ],
            [
              40.9833956,
              57.0631349
            ],
            [
              40.97795,
              57.0638562
            ],
            [
              40.9738993,
              57.0641074
            ],
            [
              40.9668829,
              57.0658338
            ],
            [
              40.9630571,
              57.0667603
            ],
            [
              40.9612671,
              57.0670563
            ],
            [
              40.9570329,
              57.0690121
            ],
            [
              40.9524606,
              57.0670825
            ],
            [
              40.953455,
              57.0646312
            ],
            [
              40.9549309,
              57.0631705
            ],
            [
              40.951232,
              57.0616819
            ],
            [
              40.9489595,
              57.0621674
            ],
            [
              40.9433689,
              57.0623475
            ],
            [
              40.9450401,
              57.0637415
            ],
            [
              40.9438867,
              57.0641783
            ],
            [
              40.9457198,
              57.0662738
            ],
            [
              40.9450887,
              57.0677001
            ],
            [
              40.9446809,
              57.0686217
            ],
            [
              40.9410398,
              57.0700014
            ],
            [
              40.9368791,
              57.0706833
            ],
            [
              40.9366624,
              57.0706995
            ],
            [
              40.9364268,
              57.0706717
            ],
            [
              40.9354653,
              57.0703799
            ],
            [
              40.9329402,
              57.069629
            ],
            [
              40.9316149,
              57.0674383
            ],
            [
              40.9340193,
              57.0638649
            ],
            [
              40.9354984,
              57.0606184
            ],
            [
              40.9277451,
              57.0560216
            ],
            [
              40.9276513,
              57.0554896
            ],
            [
              40.9274397,
              57.0549201
            ],
            [
              40.925869,
              57.0538809
            ],
            [
              40.9249792,
              57.0536147
            ],
            [
              40.9241432,
              57.0541007
            ],
            [
              40.9220743,
              57.0529468
            ],
            [
              40.920727,
              57.0537032
            ],
            [
              40.9187559,
              57.0527187
            ],
            [
              40.9202413,
              57.0518662
            ],
            [
              40.9215559,
              57.0512257
            ],
            [
              40.9160032,
              57.0476043
            ],
            [
              40.9140786,
              57.0483972
            ],
            [
              40.9061345,
              57.047173
            ],
            [
              40.9050083,
              57.0469501
            ],
            [
              40.9022029,
              57.0467895
            ],
            [
              40.9006491,
              57.0470251
            ],
            [
              40.8986249,
              57.0466226
            ],
            [
              40.8970236,
              57.0460412
            ],
            [
              40.8944283,
              57.0447727
            ],
            [
              40.8954008,
              57.0442053
            ],
            [
              40.8962239,
              57.0443493
            ],
            [
              40.896636,
              57.0443612
            ],
            [
              40.8967701,
              57.0441893
            ],
            [
              40.8963251,
              57.0438395
            ],
            [
              40.8964813,
              57.0426319
            ],
            [
              40.8970738,
              57.0422796
            ],
            [
              40.8968204,
              57.0414125
            ],
            [
              40.8975653,
              57.0409891
            ],
            [
              40.8974447,
              57.0405928
            ],
            [
              40.892571,
              57.0392854
            ],
            [
              40.8943934,
              57.0370877
            ],
            [
              40.8962699,
              57.0357835
            ],
            [
              40.8986367,
              57.0341384
            ],
            [
              40.8997229,
              57.0336273
            ],
            [
              40.9056296,
              57.0317859
            ],
            [
              40.9058381,
              57.0317209
            ],
            [
              40.9073665,
              57.0325181
            ],
            [
              40.9098474,
              57.0306875
            ],
            [
              40.9113377,
              57.0292828
            ],
            [
              40.9107477,
              57.0285436
            ],
            [
              40.9106997,
              57.0273609
            ],
            [
              40.9095341,
              57.0259547
            ],
            [
              40.9099908,
              57.0243167
            ],
            [
              40.9096076,
              57.0234567
            ],
            [
              40.9114166,
              57.0227965
            ],
            [
              40.9123287,
              57.0224636
            ],
            [
              40.9145395,
              57.0218688
            ],
            [
              40.9166105,
              57.0222077
            ],
            [
              40.9186552,
              57.0223399
            ],
            [
              40.9211728,
              57.0224462
            ],
            [
              40.9224511,
              57.0225155
            ],
            [
              40.9241546,
              57.0225495
            ],
            [
              40.926994,
              57.0219349
            ],
            [
              40.9314192,
              57.0206584
            ],
            [
              40.9405222,
              57.0178449
            ],
            [
              40.9498952,
              57.0152764
            ],
            [
              40.9505129,
              57.0152308
            ],
            [
              40.9522331,
              57.0146936
            ],
            [
              40.9529782,
              57.0139185
            ],
            [
              40.9535984,
              57.0137576
            ],
            [
              40.9543889,
              57.0133824
            ],
            [
              40.9546674,
              57.013142
            ],
            [
              40.9550147,
              57.0130936
            ],
            [
              40.9553418,
              57.0131082
            ],
            [
              40.9560808,
              57.0132672
            ],
            [
              40.9563373,
              57.0132637
            ],
            [
              40.9567883,
              57.0131333
            ],
            [
              40.9596158,
              57.0123256
            ],
            [
              40.9608473,
              57.0119248
            ],
            [
              40.9616806,
              57.0116879
            ],
            [
              40.9623075,
              57.0115735
            ],
            [
              40.9627417,
              57.0114237
            ],
            [
              40.9632399,
              57.0111152
            ],
            [
              40.9639186,
              57.0105082
            ],
            [
              40.9642621,
              57.0099718
            ],
            [
              40.9645204,
              57.0094142
            ],
            [
              40.9645806,
              57.0090305
            ],
            [
              40.9648049,
              57.0071231
            ],
            [
              40.9648755,
              57.0062339
            ],
            [
              40.9651603,
              57.0057284
            ],
            [
              40.9656741,
              57.00517
            ],
            [
              40.966842,
              57.0039737
            ],
            [
              40.96832,
              57.0028952
            ],
            [
              40.9708998,
              57.0015866
            ],
            [
              40.9729735,
              57.0011083
            ],
            [
              40.9739784,
              57.0010978
            ],
            [
              40.9751869,
              57.0012456
            ],
            [
              40.976144,
              57.001616
            ],
            [
              40.9769323,
              57.0020965
            ],
            [
              40.9779579,
              57.0026396
            ],
            [
              40.9815987,
              57.0033849
            ],
            [
              40.9875786,
              57.0044631
            ],
            [
              40.9893852,
              57.0046601
            ],
            [
              40.989891,
              57.0046247
            ],
            [
              40.9907528,
              57.0046416
            ],
            [
              40.9910523,
              57.0046185
            ],
            [
              40.9912351,
              57.0046016
            ]
          ]
        ]
      },
      "id": "relation/1586279"
    },
    {
      "type": "Feature",
      "properties": {
        "@id": "relation/1586348",
        "admin_level": "9",
        "boundary": "administrative",
        "name": "Советский район",
        "type": "boundary"
      },
      "geometry": {
        "type": "Polygon",
        "coordinates": [
          [
            [
              40.9912351,
              57.0046016
            ],
            [
              40.9923974,
              57.0044784
            ],
            [
              40.9936802,
              57.0041136
            ],
            [
              41.0011091,
              57.0009235
            ],
            [
              41.0035146,
              57.0001765
            ],
            [
              41.0062809,
              57.000288
            ],
            [
              41.0097315,
              57.0003313
            ],
            [
              41.0128855,
              57.0005195
            ],
            [
              41.014165,
              57.0003557
            ],
            [
              41.015918,
              56.9998731
            ],
            [
              41.0172263,
              56.9984637
            ],
            [
              41.0170216,
              56.9960105
            ],
            [
              41.0161763,
              56.9932704
            ],
            [
              41.0160765,
              56.9926208
            ],
            [
              41.0167035,
              56.9920688
            ],
            [
              41.0172332,
              56.991539
            ],
            [
              41.0174584,
              56.9909953
            ],
            [
              41.0169517,
              56.9903749
            ],
            [
              41.0161328,
              56.9898549
            ],
            [
              41.0141188,
              56.9886267
            ],
            [
              41.0133358,
              56.9868978
            ],
            [
              41.0129468,
              56.9861533
            ],
            [
              41.0122533,
              56.9855886
            ],
            [
              41.0112015,
              56.9849291
            ],
            [
              41.0105055,
              56.9838638
            ],
            [
              41.0103493,
              56.9833261
            ],
            [
              41.0105643,
              56.9823802
            ],
            [
              41.011419,
              56.9813511
            ],
            [
              41.0127753,
              56.9804447
            ],
            [
              41.0217027,
              56.9764105
            ],
            [
              41.0266929,
              56.9749134
            ],
            [
              41.0335224,
              56.9731395
            ],
            [
              41.0379767,
              56.9700621
            ],
            [
              41.0403218,
              56.9653661
            ],
            [
              41.0413277,
              56.9637346
            ],
            [
              41.0428272,
              56.9628456
            ],
            [
              41.0449014,
              56.9621917
            ],
            [
              41.0495309,
              56.9619089
            ],
            [
              41.0520824,
              56.9615253
            ],
            [
              41.054601,
              56.9606989
            ],
            [
              41.0586065,
              56.9582704
            ],
            [
              41.0613209,
              56.956454
            ],
            [
              41.0630759,
              56.955532
            ],
            [
              41.0644254,
              56.9553548
            ],
            [
              41.0659154,
              56.9553411
            ],
            [
              41.0658125,
              56.9562313
            ],
            [
              41.0644296,
              56.9587565
            ],
            [
              41.0653908,
              56.9589333
            ],
            [
              41.0655876,
              56.9591023
            ],
            [
              41.0654006,
              56.9594095
            ],
            [
              41.0649277,
              56.9596149
            ],
            [
              41.0638826,
              56.9596396
            ],
            [
              41.0637179,
              56.9599979
            ],
            [
              41.0634949,
              56.9606693
            ],
            [
              41.0632914,
              56.9628574
            ],
            [
              41.0634436,
              56.9630542
            ],
            [
              41.0650089,
              56.9632045
            ],
            [
              41.0631314,
              56.9657122
            ],
            [
              41.063877,
              56.9658526
            ],
            [
              41.064445,
              56.9660261
            ],
            [
              41.0667978,
              56.9675798
            ],
            [
              41.0682571,
              56.9684069
            ],
            [
              41.0694212,
              56.9688397
            ],
            [
              41.0712236,
              56.9693573
            ],
            [
              41.0720229,
              56.969638
            ],
            [
              41.0726799,
              56.9699536
            ],
            [
              41.0749234,
              56.9670096
            ],
            [
              41.0814562,
              56.96814
            ],
            [
              41.0852803,
              56.9674825
            ],
            [
              41.0914743,
              56.9654933
            ],
            [
              41.0951116,
              56.9629129
            ],
            [
              41.095765,
              56.9618856
            ],
            [
              41.0964205,
              56.9612145
            ],
            [
              41.0979492,
              56.960322
            ],
            [
              41.0992428,
              56.9595706
            ],
            [
              41.1001389,
              56.9590501
            ],
            [
              41.1004183,
              56.9588277
            ],
            [
              41.1007539,
              56.9585022
            ],
            [
              41.1013222,
              56.9578646
            ],
            [
              41.1023913,
              56.956593
            ],
            [
              41.1029149,
              56.9559731
            ],
            [
              41.1030332,
              56.9558411
            ],
            [
              41.097421,
              56.9556121
            ],
            [
              41.0978053,
              56.9550658
            ],
            [
              41.0976756,
              56.952739
            ],
            [
              41.097556,
              56.9509128
            ],
            [
              41.1076375,
              56.9511352
            ],
            [
              41.1067136,
              56.9526129
            ],
            [
              41.1040983,
              56.9556538
            ],
            [
              41.1063552,
              56.9556291
            ],
            [
              41.1115587,
              56.9560737
            ],
            [
              41.1183507,
              56.9556339
            ],
            [
              41.1232178,
              56.9553247
            ],
            [
              41.1236924,
              56.9568963
            ],
            [
              41.1238003,
              56.9577761
            ],
            [
              41.1230454,
              56.959641
            ],
            [
              41.1266349,
              56.9605797
            ],
            [
              41.1254793,
              56.9612391
            ],
            [
              41.1242191,
              56.9618173
            ],
            [
              41.1169457,
              56.9641314
            ],
            [
              41.1152197,
              56.9645351
            ],
            [
              41.1140257,
              56.9648144
            ],
            [
              41.1125523,
              56.9652251
            ],
            [
              41.0967654,
              56.9696254
            ],
            [
              41.0992742,
              56.9670604
            ],
            [
              41.09872,
              56.9627314
            ],
            [
              41.1023814,
              56.9615708
            ],
            [
              41.0982416,
              56.960512
            ],
            [
              41.0963761,
              56.9623789
            ],
            [
              41.092776,
              56.9685947
            ],
            [
              41.0852512,
              56.9704858
            ],
            [
              41.0848791,
              56.9723566
            ],
            [
              41.0797112,
              56.974535
            ],
            [
              41.081133,
              56.975737
            ],
            [
              41.082397,
              56.9765158
            ],
            [
              41.0852368,
              56.9781051
            ],
            [
              41.0864814,
              56.9786868
            ],
            [
              41.0880278,
              56.9793262
            ],
            [
              41.0878467,
              56.9795229
            ],
            [
              41.084426,
              56.9832398
            ],
            [
              41.084303,
              56.9833734
            ],
            [
              41.0838272,
              56.9840189
            ],
            [
              41.0837318,
              56.9841003
            ],
            [
              41.0837443,
              56.9841314
            ],
            [
              41.0827727,
              56.9842367
            ],
            [
              41.0803431,
              56.9837044
            ],
            [
              41.0794687,
              56.9848984
            ],
            [
              41.0784227,
              56.9864125
            ],
            [
              41.0777921,
              56.9872537
            ],
            [
              41.0753126,
              56.9893455
            ],
            [
              41.0753449,
              56.9958024
            ],
            [
              41.0783216,
              57.0050699
            ],
            [
              41.0784179,
              57.0054691
            ],
            [
              41.0765528,
              57.0054645
            ],
            [
              41.0766253,
              57.007141
            ],
            [
              41.0741383,
              57.0079741
            ],
            [
              41.0731488,
              57.010894
            ],
            [
              41.0675759,
              57.0110298
            ],
            [
              41.0617629,
              57.0096569
            ],
            [
              41.0633241,
              57.0063553
            ],
            [
              41.0634959,
              57.0051622
            ],
            [
              41.0609441,
              57.0054492
            ],
            [
              41.0597693,
              57.0056683
            ],
            [
              41.0589633,
              57.0057983
            ],
            [
              41.0582191,
              57.0059405
            ],
            [
              41.05755,
              57.0060684
            ],
            [
              41.0566029,
              57.0061999
            ],
            [
              41.0560182,
              57.0062525
            ],
            [
              41.0557634,
              57.0062642
            ],
            [
              41.0554643,
              57.0063124
            ],
            [
              41.0541501,
              57.0066294
            ],
            [
              41.0539355,
              57.0067287
            ],
            [
              41.0533378,
              57.0072818
            ],
            [
              41.0488212,
              57.0067615
            ],
            [
              41.0472623,
              57.0057556
            ],
            [
              41.0466572,
              57.0056926
            ],
            [
              41.0451837,
              57.0063516
            ],
            [
              41.0439996,
              57.0067576
            ],
            [
              41.0421415,
              57.0073979
            ],
            [
              41.0416003,
              57.0077799
            ],
            [
              41.0410899,
              57.0081984
            ],
            [
              41.0399487,
              57.0096017
            ],
            [
              41.0388009,
              57.0110617
            ],
            [
              41.0383399,
              57.0113367
            ],
            [
              41.0375976,
              57.011597
            ],
            [
              41.0357914,
              57.0121368
            ],
            [
              41.0348815,
              57.0124216
            ],
            [
              41.0344449,
              57.0126625
            ],
            [
              41.0334806,
              57.0135966
            ],
            [
              41.0329868,
              57.0142552
            ],
            [
              41.0334036,
              57.0147665
            ],
            [
              41.0335267,
              57.0147738
            ],
            [
              41.0371169,
              57.0149873
            ],
            [
              41.0380278,
              57.0164278
            ],
            [
              41.0322012,
              57.0172323
            ],
            [
              41.0328306,
              57.0183534
            ],
            [
              41.0310393,
              57.0185363
            ],
            [
              41.0331392,
              57.0221683
            ],
            [
              41.0345139,
              57.0246673
            ],
            [
              41.0368822,
              57.0283588
            ],
            [
              41.0403473,
              57.0295478
            ],
            [
              41.045398,
              57.0312808
            ],
            [
              41.048252,
              57.0333636
            ],
            [
              41.0485199,
              57.0353156
            ],
            [
              41.048574,
              57.0382939
            ],
            [
              41.0483858,
              57.0440933
            ],
            [
              41.0478595,
              57.0456803
            ],
            [
              41.0302839,
              57.04197
            ],
            [
              41.0282514,
              57.0415409
            ],
            [
              41.024592,
              57.0408517
            ],
            [
              41.011157,
              57.0382824
            ],
            [
              41.0100391,
              57.0390207
            ],
            [
              41.0085753,
              57.0395635
            ],
            [
              41.0078979,
              57.0402532
            ],
            [
              41.0066742,
              57.0416029
            ],
            [
              41.0059248,
              57.041882
            ],
            [
              41.0056829,
              57.0415791
            ],
            [
              41.0067955,
              57.0403397
            ],
            [
              41.009381,
              57.0386659
            ],
            [
              41.0098755,
              57.038295
            ],
            [
              41.0103841,
              57.0379241
            ],
            [
              41.0106702,
              57.0377108
            ],
            [
              41.0108575,
              57.0372303
            ],
            [
              41.0107621,
              57.0352623
            ],
            [
              41.0118959,
              57.0344225
            ],
            [
              41.0131392,
              57.0337747
            ],
            [
              41.0137573,
              57.0322833
            ],
            [
              41.0128814,
              57.03108
            ],
            [
              41.0109952,
              57.0300324
            ],
            [
              41.0093775,
              57.0288906
            ],
            [
              41.008339,
              57.0276219
            ],
            [
              41.008786,
              57.0257811
            ],
            [
              41.0086811,
              57.0252535
            ],
            [
              41.0086648,
              57.0247653
            ],
            [
              41.0087353,
              57.02466
            ],
            [
              41.0084369,
              57.0239601
            ],
            [
              41.0077877,
              57.02359
            ],
            [
              41.0070788,
              57.0232918
            ],
            [
              41.0055995,
              57.0228281
            ],
            [
              41.0049954,
              57.0225791
            ],
            [
              41.0046211,
              57.0222995
            ],
            [
              41.0040948,
              57.0217444
            ],
            [
              41.0033389,
              57.0210248
            ],
            [
              41.002545,
              57.020192
            ],
            [
              41.0024075,
              57.0194527
            ],
            [
              41.002592,
              57.0186986
            ],
            [
              41.0029904,
              57.0178268
            ],
            [
              41.0032552,
              57.0172542
            ],
            [
              41.0035328,
              57.016632
            ],
            [
              41.0036269,
              57.0163731
            ],
            [
              41.0037716,
              57.0161319
            ],
            [
              41.0040645,
              57.0155264
            ],
            [
              41.0042345,
              57.0151089
            ],
            [
              41.0041188,
              57.0143291
            ],
            [
              41.0036874,
              57.0135152
            ],
            [
              41.002032,
              57.0138119
            ],
            [
              40.9991898,
              57.0143264
            ],
            [
              40.9955955,
              57.0149611
            ],
            [
              40.9927478,
              57.0154382
            ],
            [
              40.9863306,
              57.0166061
            ],
            [
              40.9836356,
              57.0170875
            ],
            [
              40.9835247,
              57.0169021
            ],
            [
              40.9832593,
              57.016583
            ],
            [
              40.9836275,
              57.0164155
            ],
            [
              40.9839813,
              57.0161199
            ],
            [
              40.9840529,
              57.0159824
            ],
            [
              40.9842617,
              57.0157295
            ],
            [
              40.9849508,
              57.0148546
            ],
            [
              40.9857696,
              57.0137882
            ],
            [
              40.9861663,
              57.0132579
            ],
            [
              40.9866089,
              57.0126726
            ],
            [
              40.9872735,
              57.0117972
            ],
            [
              40.9878027,
              57.0111279
            ],
            [
              40.9883503,
              57.0104138
            ],
            [
              40.9886163,
              57.0100425
            ],
            [
              40.9891798,
              57.0092714
            ],
            [
              40.98978,
              57.0084952
            ],
            [
              40.9902543,
              57.0078681
            ],
            [
              40.9906026,
              57.0074091
            ],
            [
              40.9907524,
              57.0071813
            ],
            [
              40.9908655,
              57.0069834
            ],
            [
              40.9909376,
              57.0068388
            ],
            [
              40.9910097,
              57.0066742
            ],
            [
              40.9911172,
              57.0063251
            ],
            [
              40.9911917,
              57.006065
            ],
            [
              40.9912308,
              57.0057579
            ],
            [
              40.9912704,
              57.0048786
            ],
            [
              40.9912351,
              57.0046016
            ]
          ]
        ]
      },
      "id": "relation/1586348"
    },
    {
      "type": "Feature",
      "properties": {
        "@id": "relation/1586360",
        "admin_level": "9",
        "boundary": "administrative",
        "name": "Ленинский район",
        "type": "boundary"
      },
      "geometry": {
        "type": "Polygon",
        "coordinates": [
          [
            [
              41.0659154,
              56.9553411
            ],
            [
              41.0644254,
              56.9553548
            ],
            [
              41.0630759,
              56.955532
            ],
            [
              41.0613209,
              56.956454
            ],
            [
              41.0586065,
              56.9582704
            ],
            [
              41.054601,
              56.9606989
            ],
            [
              41.0520824,
              56.9615253
            ],
            [
              41.0495309,
              56.9619089
            ],
            [
              41.0449014,
              56.9621917
            ],
            [
              41.0428272,
              56.9628456
            ],
            [
              41.0413277,
              56.9637346
            ],
            [
              41.0403218,
              56.9653661
            ],
            [
              41.0379767,
              56.9700621
            ],
            [
              41.0335224,
              56.9731395
            ],
            [
              41.0266929,
              56.9749134
            ],
            [
              41.0217027,
              56.9764105
            ],
            [
              41.0127753,
              56.9804447
            ],
            [
              41.011419,
              56.9813511
            ],
            [
              41.0105643,
              56.9823802
            ],
            [
              41.0103493,
              56.9833261
            ],
            [
              41.0105055,
              56.9838638
            ],
            [
              41.0112015,
              56.9849291
            ],
            [
              41.0122533,
              56.9855886
            ],
            [
              41.0129468,
              56.9861533
            ],
            [
              41.0133358,
              56.9868978
            ],
            [
              41.0141188,
              56.9886267
            ],
            [
              41.0161328,
              56.9898549
            ],
            [
              41.0169517,
              56.9903749
            ],
            [
              41.0174584,
              56.9909953
            ],
            [
              41.0172332,
              56.991539
            ],
            [
              41.0167035,
              56.9920688
            ],
            [
              41.0160765,
              56.9926208
            ],
            [
              41.0161763,
              56.9932704
            ],
            [
              41.0170216,
              56.9960105
            ],
            [
              41.0172263,
              56.9984637
            ],
            [
              41.015918,
              56.9998731
            ],
            [
              41.014165,
              57.0003557
            ],
            [
              41.0128855,
              57.0005195
            ],
            [
              41.0097315,
              57.0003313
            ],
            [
              41.0062809,
              57.000288
            ],
            [
              41.0035146,
              57.0001765
            ],
            [
              41.0011091,
              57.0009235
            ],
            [
              40.9936802,
              57.0041136
            ],
            [
              40.9923974,
              57.0044784
            ],
            [
              40.9912351,
              57.0046016
            ],
            [
              40.9910523,
              57.0046185
            ],
            [
              40.9907528,
              57.0046416
            ],
            [
              40.989891,
              57.0046247
            ],
            [
              40.9893852,
              57.0046601
            ],
            [
              40.9875786,
              57.0044631
            ],
            [
              40.9815987,
              57.0033849
            ],
            [
              40.9779579,
              57.0026396
            ],
            [
              40.9769323,
              57.0020965
            ],
            [
              40.976144,
              57.001616
            ],
            [
              40.9751869,
              57.0012456
            ],
            [
              40.9739784,
              57.0010978
            ],
            [
              40.9739624,
              57.0006351
            ],
            [
              40.9737227,
              56.9991282
            ],
            [
              40.9736472,
              56.9987908
            ],
            [
              40.9735726,
              56.9987718
            ],
            [
              40.9737222,
              56.9986558
            ],
            [
              40.9737917,
              56.9985544
            ],
            [
              40.9739794,
              56.9984629
            ],
            [
              40.9741587,
              56.9983757
            ],
            [
              40.9743237,
              56.9982921
            ],
            [
              40.9757788,
              56.9976088
            ],
            [
              40.9762163,
              56.9973561
            ],
            [
              40.9766725,
              56.9970876
            ],
            [
              40.9767627,
              56.997036
            ],
            [
              40.9776207,
              56.9965447
            ],
            [
              40.9786866,
              56.9959229
            ],
            [
              40.9787388,
              56.995901
            ],
            [
              40.9787541,
              56.9950724
            ],
            [
              40.9804155,
              56.9938249
            ],
            [
              40.9811445,
              56.9938488
            ],
            [
              40.9815212,
              56.9938195
            ],
            [
              40.9828231,
              56.9935245
            ],
            [
              40.9837603,
              56.993318
            ],
            [
              40.9846928,
              56.9931056
            ],
            [
              40.9863143,
              56.992671
            ],
            [
              40.9861097,
              56.9923846
            ],
            [
              40.9858465,
              56.9919409
            ],
            [
              40.985585,
              56.9915113
            ],
            [
              40.9848915,
              56.9903654
            ],
            [
              40.984371,
              56.9895322
            ],
            [
              40.9838139,
              56.988635
            ],
            [
              40.9835011,
              56.9881154
            ],
            [
              40.9832135,
              56.9876191
            ],
            [
              40.9828131,
              56.9869977
            ],
            [
              40.9819808,
              56.9856051
            ],
            [
              40.9816314,
              56.9848812
            ],
            [
              40.9811739,
              56.9841114
            ],
            [
              40.980777,
              56.9834423
            ],
            [
              40.9796362,
              56.9814111
            ],
            [
              40.9790034,
              56.9803896
            ],
            [
              40.9773359,
              56.9783094
            ],
            [
              40.9758067,
              56.9763269
            ],
            [
              40.9753876,
              56.9757797
            ],
            [
              40.9750051,
              56.9753027
            ],
            [
              40.974533,
              56.9746658
            ],
            [
              40.973883,
              56.9718595
            ],
            [
              40.97352,
              56.9699652
            ],
            [
              40.9734747,
              56.9681779
            ],
            [
              40.9735736,
              56.9664213
            ],
            [
              40.9736073,
              56.9651445
            ],
            [
              40.9737878,
              56.9649618
            ],
            [
              40.9740459,
              56.9646916
            ],
            [
              40.9740001,
              56.9644336
            ],
            [
              40.973979,
              56.9643299
            ],
            [
              40.9738007,
              56.9640804
            ],
            [
              40.9741087,
              56.961268
            ],
            [
              40.9741109,
              56.961252
            ],
            [
              40.9743468,
              56.9584801
            ],
            [
              40.9744057,
              56.9577902
            ],
            [
              40.9748179,
              56.9547674
            ],
            [
              40.9747977,
              56.9539861
            ],
            [
              40.9756009,
              56.9540156
            ],
            [
              40.9759037,
              56.9540242
            ],
            [
              40.9815528,
              56.9525737
            ],
            [
              40.9803503,
              56.9519848
            ],
            [
              40.9798552,
              56.9516812
            ],
            [
              40.979769,
              56.9516284
            ],
            [
              40.9792601,
              56.9512166
            ],
            [
              40.9803486,
              56.9508523
            ],
            [
              40.9802557,
              56.9508244
            ],
            [
              40.981313,
              56.9504488
            ],
            [
              40.9834681,
              56.949495
            ],
            [
              40.9845968,
              56.9489795
            ],
            [
              40.9847744,
              56.948887
            ],
            [
              40.9848587,
              56.9488383
            ],
            [
              40.9849439,
              56.9487891
            ],
            [
              40.9862709,
              56.9475283
            ],
            [
              40.9870741,
              56.946694
            ],
            [
              40.9886303,
              56.9470458
            ],
            [
              40.9871841,
              56.9478288
            ],
            [
              40.9896685,
              56.9488969
            ],
            [
              40.990403,
              56.9492127
            ],
            [
              40.9905559,
              56.9493569
            ],
            [
              40.9898955,
              56.9496127
            ],
            [
              40.9884881,
              56.9500832
            ],
            [
              40.9879882,
              56.9502654
            ],
            [
              40.9876781,
              56.9504606
            ],
            [
              40.9871309,
              56.9510896
            ],
            [
              40.9865784,
              56.9517917
            ],
            [
              40.9858569,
              56.9525186
            ],
            [
              40.9849905,
              56.9532514
            ],
            [
              40.9844086,
              56.9539722
            ],
            [
              40.9843772,
              56.9540632
            ],
            [
              40.9842634,
              56.9549939
            ],
            [
              40.9890943,
              56.9546322
            ],
            [
              40.9939465,
              56.9542032
            ],
            [
              40.996406,
              56.9540033
            ],
            [
              40.9975629,
              56.9538922
            ],
            [
              40.9990507,
              56.9537078
            ],
            [
              40.9990651,
              56.9535884
            ],
            [
              40.9993974,
              56.952476
            ],
            [
              40.9995744,
              56.9513618
            ],
            [
              40.9993239,
              56.9510369
            ],
            [
              41.0050049,
              56.9501867
            ],
            [
              41.0063038,
              56.9508041
            ],
            [
              41.0051331,
              56.9517522
            ],
            [
              41.006832,
              56.9525735
            ],
            [
              41.0075068,
              56.9529011
            ],
            [
              41.0087503,
              56.9535026
            ],
            [
              41.0112999,
              56.9547439
            ],
            [
              41.0115103,
              56.9546394
            ],
            [
              41.0118912,
              56.954712
            ],
            [
              41.0124215,
              56.9545074
            ],
            [
              41.0124864,
              56.9544685
            ],
            [
              41.0126319,
              56.954429
            ],
            [
              41.013172,
              56.9544384
            ],
            [
              41.0137976,
              56.9545457
            ],
            [
              41.0142122,
              56.9549038
            ],
            [
              41.0142689,
              56.9550498
            ],
            [
              41.0143209,
              56.9551602
            ],
            [
              41.0144274,
              56.9554231
            ],
            [
              41.0146844,
              56.9553762
            ],
            [
              41.0150779,
              56.9553697
            ],
            [
              41.01537,
              56.9554319
            ],
            [
              41.0156435,
              56.9555061
            ],
            [
              41.0158587,
              56.9557078
            ],
            [
              41.0149066,
              56.9563761
            ],
            [
              41.016608,
              56.9571963
            ],
            [
              41.0181423,
              56.9575669
            ],
            [
              41.0201003,
              56.9575448
            ],
            [
              41.0216783,
              56.9573999
            ],
            [
              41.0219903,
              56.9573678
            ],
            [
              41.0208502,
              56.9568542
            ],
            [
              41.0206008,
              56.9567418
            ],
            [
              41.0226713,
              56.9552183
            ],
            [
              41.02454,
              56.9538282
            ],
            [
              41.0236557,
              56.9534538
            ],
            [
              41.0245453,
              56.9526677
            ],
            [
              41.0251365,
              56.9514514
            ],
            [
              41.0240199,
              56.9507724
            ],
            [
              41.0259891,
              56.9497432
            ],
            [
              41.027407,
              56.9500914
            ],
            [
              41.0302904,
              56.9515702
            ],
            [
              41.0309288,
              56.952091
            ],
            [
              41.0318944,
              56.9528881
            ],
            [
              41.0341024,
              56.9538039
            ],
            [
              41.034013,
              56.9539156
            ],
            [
              41.0345191,
              56.9541349
            ],
            [
              41.0338393,
              56.9556211
            ],
            [
              41.0357357,
              56.9563043
            ],
            [
              41.0375865,
              56.957161
            ],
            [
              41.0386216,
              56.956611
            ],
            [
              41.0458573,
              56.9513212
            ],
            [
              41.0525881,
              56.9478711
            ],
            [
              41.0531084,
              56.948103
            ],
            [
              41.0543862,
              56.9487356
            ],
            [
              41.0560527,
              56.9495369
            ],
            [
              41.0576087,
              56.9486461
            ],
            [
              41.0595614,
              56.9495209
            ],
            [
              41.0599959,
              56.9496759
            ],
            [
              41.0606074,
              56.9496291
            ],
            [
              41.0606858,
              56.9496653
            ],
            [
              41.0621659,
              56.9503495
            ],
            [
              41.062803,
              56.9499508
            ],
            [
              41.0631716,
              56.9497256
            ],
            [
              41.0642918,
              56.9502518
            ],
            [
              41.0644124,
              56.9501843
            ],
            [
              41.064896,
              56.9503857
            ],
            [
              41.0653657,
              56.9500543
            ],
            [
              41.0659782,
              56.9496757
            ],
            [
              41.066528,
              56.9498859
            ],
            [
              41.0669673,
              56.9500538
            ],
            [
              41.0682517,
              56.9505946
            ],
            [
              41.062094,
              56.9548051
            ],
            [
              41.0661412,
              56.9548745
            ],
            [
              41.0661283,
              56.9549176
            ],
            [
              41.0660593,
              56.9551478
            ],
            [
              41.0659154,
              56.9553411
            ]
          ]
        ]
      },
      "id": "relation/1586360"
    },
    {
      "type": "Feature",
      "properties": {
        "@id": "relation/1586361",
        "admin_level": "9",
        "boundary": "administrative",
        "name": "Фрунзенский район",
        "type": "boundary"
      },
      "geometry": {
        "type": "Polygon",
        "coordinates": [
          [
            [
              40.9084041,
              57.0213506
            ],
            [
              40.9097385,
              57.0202859
            ],
            [
              40.9101308,
              57.0202662
            ],
            [
              40.9120177,
              57.0200208
            ],
            [
              40.9125946,
              57.0198913
            ],
            [
              40.9125909,
              57.0198511
            ],
            [
              40.9135037,
              57.0198288
            ],
            [
              40.9146164,
              57.0197144
            ],
            [
              40.9178113,
              57.0195964
            ],
            [
              40.9176587,
              57.0191846
            ],
            [
              40.9165837,
              57.0186945
            ],
            [
              40.9129733,
              57.0161599
            ],
            [
              40.9107551,
              57.0145624
            ],
            [
              40.9095276,
              57.0136564
            ],
            [
              40.9082437,
              57.0127222
            ],
            [
              40.9070871,
              57.0122599
            ],
            [
              40.9039622,
              57.0131533
            ],
            [
              40.9031245,
              57.0133777
            ],
            [
              40.9005384,
              57.0157505
            ],
            [
              40.8998901,
              57.0157079
            ],
            [
              40.8985532,
              57.0154514
            ],
            [
              40.8953694,
              57.0147467
            ],
            [
              40.8928276,
              57.0143364
            ],
            [
              40.8903591,
              57.0141972
            ],
            [
              40.888345,
              57.014272
            ],
            [
              40.8856269,
              57.0148453
            ],
            [
              40.8854763,
              57.0147048
            ],
            [
              40.8836688,
              57.0135782
            ],
            [
              40.8846674,
              57.0123954
            ],
            [
              40.8853825,
              57.0102095
            ],
            [
              40.8855434,
              57.0101053
            ],
            [
              40.8855633,
              57.0098733
            ],
            [
              40.885412,
              57.0097752
            ],
            [
              40.8861559,
              57.0094691
            ],
            [
              40.8855424,
              57.008907
            ],
            [
              40.8855102,
              57.0086938
            ],
            [
              40.8856497,
              57.0085215
            ],
            [
              40.884963,
              57.0080512
            ],
            [
              40.8846435,
              57.0080677
            ],
            [
              40.8846251,
              57.0080687
            ],
            [
              40.8836515,
              57.0074285
            ],
            [
              40.8832893,
              57.0070901
            ],
            [
              40.8832384,
              57.0066812
            ],
            [
              40.8832437,
              57.0062781
            ],
            [
              40.8828789,
              57.0055492
            ],
            [
              40.8828159,
              57.0052237
            ],
            [
              40.8826645,
              57.0042955
            ],
            [
              40.8826524,
              57.0042158
            ],
            [
              40.8834695,
              57.0040873
            ],
            [
              40.8836326,
              57.0033173
            ],
            [
              40.883794,
              57.0026019
            ],
            [
              40.8838386,
              57.0023931
            ],
            [
              40.8842174,
              57.0006208
            ],
            [
              40.8841262,
              57.0005682
            ],
            [
              40.884035,
              56.9997063
            ],
            [
              40.8842603,
              56.9980234
            ],
            [
              40.8815398,
              56.9977121
            ],
            [
              40.8774153,
              56.9960423
            ],
            [
              40.8741752,
              56.9949962
            ],
            [
              40.8702299,
              56.9938362
            ],
            [
              40.8678799,
              56.9926528
            ],
            [
              40.8697969,
              56.9916623
            ],
            [
              40.870987,
              56.9907273
            ],
            [
              40.8953241,
              56.9979522
            ],
            [
              40.8974446,
              56.9963292
            ],
            [
              40.9005085,
              56.9939689
            ],
            [
              40.9019434,
              56.9945571
            ],
            [
              40.9023806,
              56.9942386
            ],
            [
              40.9027991,
              56.9938295
            ],
            [
              40.9030726,
              56.9934233
            ],
            [
              40.9033891,
              56.9929704
            ],
            [
              40.9038398,
              56.9922339
            ],
            [
              40.9042019,
              56.9916203
            ],
            [
              40.9045827,
              56.9907874
            ],
            [
              40.9046364,
              56.9904776
            ],
            [
              40.9045382,
              56.9901653
            ],
            [
              40.9044593,
              56.9898318
            ],
            [
              40.904336,
              56.9895307
            ],
            [
              40.9043252,
              56.9891713
            ],
            [
              40.9044111,
              56.9887884
            ],
            [
              40.9045827,
              56.9884231
            ],
            [
              40.9047624,
              56.9880636
            ],
            [
              40.9058665,
              56.9883066
            ],
            [
              40.9108025,
              56.9817093
            ],
            [
              40.9109047,
              56.9814696
            ],
            [
              40.9109905,
              56.9808324
            ],
            [
              40.9108725,
              56.9802477
            ],
            [
              40.9099146,
              56.9787896
            ],
            [
              40.9208547,
              56.9690184
            ],
            [
              40.920133,
              56.9687228
            ],
            [
              40.9212459,
              56.9667447
            ],
            [
              40.9267242,
              56.9642958
            ],
            [
              40.9308946,
              56.9639129
            ],
            [
              40.9309199,
              56.9615527
            ],
            [
              40.9311008,
              56.9602052
            ],
            [
              40.9314316,
              56.9594827
            ],
            [
              40.9318486,
              56.9589888
            ],
            [
              40.9328242,
              56.9583057
            ],
            [
              40.9346533,
              56.957378
            ],
            [
              40.9356754,
              56.9564195
            ],
            [
              40.9357398,
              56.955109
            ],
            [
              40.9365123,
              56.9537517
            ],
            [
              40.9383654,
              56.9536079
            ],
            [
              40.9398168,
              56.9553372
            ],
            [
              40.9403747,
              56.9561211
            ],
            [
              40.9406497,
              56.9571107
            ],
            [
              40.9405853,
              56.959082
            ],
            [
              40.9454897,
              56.9592242
            ],
            [
              40.949383,
              56.9593687
            ],
            [
              40.9532024,
              56.9591113
            ],
            [
              40.9531595,
              56.9579765
            ],
            [
              40.9554069,
              56.9578715
            ],
            [
              40.9553311,
              56.9574415
            ],
            [
              40.9588302,
              56.9570172
            ],
            [
              40.9600212,
              56.9561364
            ],
            [
              40.9610587,
              56.9554239
            ],
            [
              40.9627947,
              56.9550433
            ],
            [
              40.9667445,
              56.9531564
            ],
            [
              40.9683871,
              56.9534615
            ],
            [
              40.9699254,
              56.953701
            ],
            [
              40.9699864,
              56.9545894
            ],
            [
              40.9701307,
              56.9554106
            ],
            [
              40.9702027,
              56.9560189
            ],
            [
              40.9716864,
              56.95594
            ],
            [
              40.9717477,
              56.9566743
            ],
            [
              40.9738985,
              56.9567002
            ],
            [
              40.97418,
              56.9540037
            ],
            [
              40.9747977,
              56.9539861
            ],
            [
              40.9748179,
              56.9547674
            ],
            [
              40.9744057,
              56.9577902
            ],
            [
              40.9743468,
              56.9584801
            ],
            [
              40.9741109,
              56.961252
            ],
            [
              40.9741087,
              56.961268
            ],
            [
              40.9738007,
              56.9640804
            ],
            [
              40.973979,
              56.9643299
            ],
            [
              40.9740001,
              56.9644336
            ],
            [
              40.9740459,
              56.9646916
            ],
            [
              40.9737878,
              56.9649618
            ],
            [
              40.9736073,
              56.9651445
            ],
            [
              40.9735736,
              56.9664213
            ],
            [
              40.9734747,
              56.9681779
            ],
            [
              40.97352,
              56.9699652
            ],
            [
              40.973883,
              56.9718595
            ],
            [
              40.974533,
              56.9746658
            ],
            [
              40.9750051,
              56.9753027
            ],
            [
              40.9753876,
              56.9757797
            ],
            [
              40.9758067,
              56.9763269
            ],
            [
              40.9773359,
              56.9783094
            ],
            [
              40.9790034,
              56.9803896
            ],
            [
              40.9796362,
              56.9814111
            ],
            [
              40.980777,
              56.9834423
            ],
            [
              40.9811739,
              56.9841114
            ],
            [
              40.9816314,
              56.9848812
            ],
            [
              40.9819808,
              56.9856051
            ],
            [
              40.9828131,
              56.9869977
            ],
            [
              40.9832135,
              56.9876191
            ],
            [
              40.9835011,
              56.9881154
            ],
            [
              40.9838139,
              56.988635
            ],
            [
              40.984371,
              56.9895322
            ],
            [
              40.9848915,
              56.9903654
            ],
            [
              40.985585,
              56.9915113
            ],
            [
              40.9858465,
              56.9919409
            ],
            [
              40.9861097,
              56.9923846
            ],
            [
              40.9863143,
              56.992671
            ],
            [
              40.9846928,
              56.9931056
            ],
            [
              40.9837603,
              56.993318
            ],
            [
              40.9828231,
              56.9935245
            ],
            [
              40.9815212,
              56.9938195
            ],
            [
              40.9811445,
              56.9938488
            ],
            [
              40.9804155,
              56.9938249
            ],
            [
              40.9787541,
              56.9950724
            ],
            [
              40.9787388,
              56.995901
            ],
            [
              40.9786866,
              56.9959229
            ],
            [
              40.9776207,
              56.9965447
            ],
            [
              40.9767627,
              56.997036
            ],
            [
              40.9766725,
              56.9970876
            ],
            [
              40.9762163,
              56.9973561
            ],
            [
              40.9757788,
              56.9976088
            ],
            [
              40.9743237,
              56.9982921
            ],
            [
              40.9741587,
              56.9983757
            ],
            [
              40.9739794,
              56.9984629
            ],
            [
              40.9737917,
              56.9985544
            ],
            [
              40.9737222,
              56.9986558
            ],
            [
              40.9735726,
              56.9987718
            ],
            [
              40.9736472,
              56.9987908
            ],
            [
              40.9737227,
              56.9991282
            ],
            [
              40.9739624,
              57.0006351
            ],
            [
              40.9739784,
              57.0010978
            ],
            [
              40.9729735,
              57.0011083
            ],
            [
              40.9708998,
              57.0015866
            ],
            [
              40.96832,
              57.0028952
            ],
            [
              40.966842,
              57.0039737
            ],
            [
              40.9656741,
              57.00517
            ],
            [
              40.9651603,
              57.0057284
            ],
            [
              40.9648755,
              57.0062339
            ],
            [
              40.9648049,
              57.0071231
            ],
            [
              40.9645806,
              57.0090305
            ],
            [
              40.9645204,
              57.0094142
            ],
            [
              40.9642621,
              57.0099718
            ],
            [
              40.9639186,
              57.0105082
            ],
            [
              40.9632399,
              57.0111152
            ],
            [
              40.9627417,
              57.0114237
            ],
            [
              40.9623075,
              57.0115735
            ],
            [
              40.9616806,
              57.0116879
            ],
            [
              40.9608473,
              57.0119248
            ],
            [
              40.9596158,
              57.0123256
            ],
            [
              40.9567883,
              57.0131333
            ],
            [
              40.9563373,
              57.0132637
            ],
            [
              40.9560808,
              57.0132672
            ],
            [
              40.9553418,
              57.0131082
            ],
            [
              40.9550147,
              57.0130936
            ],
            [
              40.9546674,
              57.013142
            ],
            [
              40.9543889,
              57.0133824
            ],
            [
              40.9535984,
              57.0137576
            ],
            [
              40.9529782,
              57.0139185
            ],
            [
              40.9522331,
              57.0146936
            ],
            [
              40.9505129,
              57.0152308
            ],
            [
              40.9498952,
              57.0152764
            ],
            [
              40.9405222,
              57.0178449
            ],
            [
              40.9314192,
              57.0206584
            ],
            [
              40.926994,
              57.0219349
            ],
            [
              40.9241546,
              57.0225495
            ],
            [
              40.9224511,
              57.0225155
            ],
            [
              40.9211728,
              57.0224462
            ],
            [
              40.9186552,
              57.0223399
            ],
            [
              40.9166105,
              57.0222077
            ],
            [
              40.9145395,
              57.0218688
            ],
            [
              40.9123287,
              57.0224636
            ],
            [
              40.9114166,
              57.0227965
            ],
            [
              40.9096076,
              57.0234567
            ],
            [
              40.9084041,
              57.0213506
            ]
          ]
        ]
      },
      "id": "relation/1586361"
    }
  ]
}