{
"type": "FeatureCollection",
"name": "lep",
"crs": { "type": "name", "properties": { "name": "urn:ogc:def:crs:OGC:1.3:CRS84" } },
"features": [
{ "type": "Feature", "properties": { "lep_id": 1 }, "geometry": { "type": "LineString", "coordinates": [ [ 52.194339439627377, 53.081468941905023 ], [ 52.20789249163191, 53.093906422208399 ], [ 52.216928444366509, 53.098379112412992 ], [ 52.231326968286467, 53.101181785643107 ], [ 52.242503937438684, 53.099269461877448 ], [ 52.249966025477448, 53.10237158361155 ], [ 52.267450815705509, 53.10726436745481 ], [ 52.272225700160845, 53.110006515465948 ], [ 52.275439445379128, 53.113317055532292 ], [ 52.288656057493455, 53.123222985236801 ], [ 52.290569221380444, 53.122132930045119 ], [ 52.302425815017905, 53.128627829872187 ], [ 52.309864517436289, 53.134513578887926 ], [ 52.310237549790806, 53.140776449103818 ], [ 52.321983196171452, 53.146012155035514 ], [ 52.327205128084522, 53.155024617095755 ], [ 52.335654777926415, 53.159089765176013 ], [ 52.346839831233133, 53.166379855997747 ], [ 52.349075734547739, 53.17171333486521 ], [ 52.357001329547657, 53.177688136742347 ], [ 52.366886727111009, 53.185843584145751 ], [ 52.377725644896323, 53.181719581433676 ], [ 52.391536386179297, 53.189073653508281 ], [ 52.40456317712615, 53.187317614078964 ], [ 52.416637279182694, 53.191609695366267 ], [ 52.430683360305274, 53.196748597121875 ], [ 52.440404347987567, 53.19765577595156 ], [ 52.456592486699556, 53.198848231755605 ], [ 52.462975579982064, 53.203586474074569 ], [ 52.482917967146882, 53.210801575902394 ], [ 52.486793831117964, 53.213940423949964 ], [ 52.491898641071892, 53.22196503587292 ], [ 52.499973156980516, 53.228428287478884 ], [ 52.512583419879753, 53.234141647529484 ], [ 52.518007857449504, 53.24622022071474 ], [ 52.527567272436301, 53.250240273020921 ], [ 52.533165951427108, 53.251750800684654 ], [ 52.537990284442849, 53.261359196482445 ], [ 52.541958230049261, 53.264705903184975 ], [ 52.54661625469938, 53.271503355533881 ], [ 52.556677689739345, 53.271832104711635 ], [ 52.568155160459177, 53.275748711666779 ], [ 52.574480664520053, 53.279270668998869 ], [ 52.579099544109418, 53.282242992084356 ], [ 52.592979698188223, 53.280884738371746 ], [ 52.604204996199272, 53.285233935488726 ], [ 52.611615617074229, 53.288427567544552 ], [ 52.62651713920831, 53.292188477977611 ], [ 52.638616591791425, 53.30144723378708 ], [ 52.650995846555396, 53.309753921722269 ] ] } },
{ "type": "Feature", "properties": { "lep_id": 2 }, "geometry": { "type": "LineString", "coordinates": [ [ 52.276422792177868, 53.332329665068414 ], [ 52.289855496530549, 53.333917014872085 ], [ 52.303940517509048, 53.32976803135783 ], [ 52.308809635522287, 53.321694744217083 ], [ 52.307458621116929, 53.312043835705126 ], [ 52.31876808225325, 53.30375031954928 ], [ 52.331891934469361, 53.297827616241207 ], [ 52.329863271972151, 53.285676960060378 ], [ 52.338828612700524, 53.280847505772705 ], [ 52.343741053062338, 53.27270070189946 ], [ 52.340392498905324, 53.267276173226101 ], [ 52.346260139506334, 53.2657130371433 ], [ 52.336561178143263, 53.261608434942524 ], [ 52.34706602200783, 53.258510632505732 ], [ 52.352390300074376, 53.25696883241816 ], [ 52.351395210921922, 53.251550564987141 ], [ 52.365681143843844, 53.250048735903952 ], [ 52.358374189433704, 53.24450104524648 ], [ 52.367255971822253, 53.241615794775988 ], [ 52.375432673770938, 53.235340244691663 ], [ 52.38736113589696, 53.229563317628767 ], [ 52.384495523874399, 53.223649422674903 ], [ 52.402728715704654, 53.212447288693703 ], [ 52.40780226019892, 53.210625211755911 ], [ 52.413395693598574, 53.195108637501455 ], [ 52.428438115494096, 53.186120018668163 ], [ 52.437176445088966, 53.18346318533812 ], [ 52.443358756389379, 53.175401351040712 ], [ 52.45449229280262, 53.168628552746391 ], [ 52.460698516698947, 53.163287317872886 ], [ 52.469557812185151, 53.157424597357057 ], [ 52.477645123781457, 53.151851189802905 ], [ 52.486324572633542, 53.151053154894697 ], [ 52.479958678541827, 53.146881155448639 ], [ 52.496124863470648, 53.147827311370413 ], [ 52.483570209103462, 53.142566968183367 ], [ 52.492594511539941, 53.13741677316073 ], [ 52.497532909584351, 53.134138556760817 ], [ 52.498605258063272, 53.130462467547851 ], [ 52.497590125810099, 53.121982355300936 ], [ 52.502055380083881, 53.114149848751509 ], [ 52.504710003155196, 53.108605504153495 ], [ 52.508834212644174, 53.1002030395777 ], [ 52.519574034430924, 53.089890397527384 ], [ 52.524147651136865, 53.081622019374528 ], [ 52.527647024645013, 53.075369107857647 ], [ 52.541671399283715, 53.064377605881482 ], [ 52.548393026781881, 53.058269566655248 ], [ 52.559772957212083, 53.054546786201186 ], [ 52.56678348503263, 53.059167268758202 ] ] } },
{ "type": "Feature", "properties": { "lep_id": 3 }, "geometry": { "type": "LineString", "coordinates": [ [ 52.197584853242617, 53.198303292190211 ], [ 52.211522256062743, 53.202286595806051 ], [ 52.221319104007414, 53.20270114367316 ], [ 52.230098465489178, 53.202103902154619 ], [ 52.240679297103071, 53.200614455225171 ], [ 52.248785127620486, 53.200797896049544 ], [ 52.260013056940572, 53.197890075649717 ], [ 52.268497101949009, 53.198155914875898 ], [ 52.278141173388477, 53.198006249481104 ], [ 52.284073877838949, 53.198483921057708 ], [ 52.294322816658422, 53.199183234945771 ], [ 52.30362716007928, 53.198092866434664 ], [ 52.307872260997712, 53.19908888160596 ], [ 52.316232819662119, 53.203982446756754 ], [ 52.324148901927657, 53.204841179298434 ], [ 52.329692061737802, 53.205595905912162 ], [ 52.338878687551777, 53.209967333939979 ], [ 52.34676212612964, 53.209867166530117 ], [ 52.355735798342323, 53.212158219940058 ], [ 52.363316508845209, 53.211544549154958 ], [ 52.374597682315652, 53.213882598231329 ], [ 52.385623264902613, 53.213180679319528 ], [ 52.397854550098799, 53.21018171670017 ], [ 52.407783957298022, 53.210586903581714 ], [ 52.42099111659757, 53.209122594197133 ], [ 52.426603347382709, 53.209000032191682 ], [ 52.440577827967459, 53.205570296843 ], [ 52.450173303574715, 53.207029847654589 ], [ 52.464486251015998, 53.207445268649984 ], [ 52.468947552991516, 53.204889634843191 ], [ 52.478658359787957, 53.206561655911287 ], [ 52.488353748014212, 53.207039353848025 ], [ 52.494373362329753, 53.210816804319045 ], [ 52.505752550866397, 53.213805581823593 ], [ 52.513296226081344, 53.216611731031243 ], [ 52.522568343266009, 53.21674340041185 ], [ 52.530392586360982, 53.219936220602719 ], [ 52.540439066917173, 53.217553585074185 ], [ 52.546003509378608, 53.21776421232061 ], [ 52.550658710385505, 53.219709050673949 ], [ 52.557772632033235, 53.219815136526705 ], [ 52.568404514485593, 53.21855659536719 ], [ 52.573402215686201, 53.215330089396573 ], [ 52.58832843882729, 53.216414705642677 ], [ 52.596497095172232, 53.214097006501596 ], [ 52.603412653007055, 53.21563100712612 ], [ 52.611422729265328, 53.214967690601789 ], [ 52.627814253605997, 53.213523217877281 ], [ 52.63605196640664, 53.214630298180914 ], [ 52.647537701930247, 53.219900911850793 ] ] } }
]
}
